*******************************************************************************
Ephemeris / WWW_USER Mon Jul 15 19:25:00 2024 Pasadena, USA      / Horizons    
*******************************************************************************
Target body name: (2018 RB1)                      {source: JPL#5}
Center body name: Earth (399)                     {source: DE441}
Center-site name: Gemini South Obs., Cerro Pachon
*******************************************************************************
Start time      : A.D. 2018-Oct-23 23:07:00.0000 UT      
Stop  time      : A.D. 2018-Oct-24 09:46:00.0000 UT      
Step-size       : 1 minutes
*******************************************************************************
Target pole/equ : undefined
Target radii    : undefined                                                    
Center geodetic : 289.2634, -30.2406227, 2.71233  {E-lon(deg),Lat(deg),Alt(km)}
Center cylindric: 289.2634,5517.21435,-3194.81213 {E-lon(deg),Dxy(km),Dz(km)}
Center pole/equ : ITRF93                          {East-longitude positive}
Center radii    : 6378.137, 6378.137, 6356.752 km {Equator_a, b, pole_c}       
Target primary  : Sun
Vis. interferer : MOON (R_eq= 1737.400) km        {source: DE441}
Rel. light bend : Sun                             {source: DE441}
Rel. lght bnd GM: 1.3271E+11 km^3/s^2                                          
Small-body perts: Yes                             {source: SB441-N16}
Atmos refraction: NO (AIRLESS)
RA format       : HMS
Time format     : CAL 
Calendar mode   : Mixed Julian/Gregorian
RTS-only print  : NO       
EOP file        : eop.240715.p241008                                           
EOP coverage    : DATA-BASED 1962-JAN-20 TO 2024-JUL-15. PREDICTS-> 2024-OCT-07
Units conversion: 1 au= 149597870.700 km, c= 299792.458 km/s, 1 day= 86400.0 s 
Table cut-offs 1: Elevation (-90.0deg=NO ),Airmass (>38.000=NO), Daylight (YES)
Table cut-offs 2: Solar elongation (  0.0,180.0=NO ),Local Hour Angle( 0.0=NO )
Table cut-offs 3: RA/DEC angular rate (     0.0=NO )                           
*******************************************************************************
Initial IAU76/J2000 heliocentric ecliptic osculating elements (au, days, deg.):
  EPOCH=  2458368.5 ! 2018-Sep-07.00 (TDB)         Residual RMS= .299          
   EC= .2816093255492492   QR= .7991213126369837   TP= 2458438.7854507864      
   OM= 166.9631715555783   W=  267.8210074013559   IN= 5.127543488636634       
  Equivalent ICRF heliocentric cartesian coordinates (au, au/d):
   X= 9.883258176612897E-01  Y=-2.654573099408967E-01  Z=-1.095366816313374E-01
  VX= 1.112505236628486E-04 VY= 1.667631342697191E-02 VZ= 5.559084906068471E-03
Asteroid physical parameters (km, seconds, rotational period in hours):        
   GM= n.a.                RAD= n.a.               ROTPER= n.a.                
   H= 27.9                 G= .150                 B-V= n.a.                   
                           ALBEDO= n.a.            STYP= n.a.                  
*******************************************************************************
 Date__(UT)__HR:MN     R.A._________(ICRF)_________DEC
******************************************************
$$SOE
 2018-Oct-24 09:22 Nm  11 10 27.270589 -10 55 02.16966
 2018-Oct-24 09:23 Nm  11 10 27.327309 -10 55 02.07200
 2018-Oct-24 09:24 Nm  11 10 27.383992 -10 55 01.97429
 2018-Oct-24 09:25 Nm  11 10 27.440637 -10 55 01.87654
 2018-Oct-24 09:26 Nm  11 10 27.497244 -10 55 01.77875
 2018-Oct-24 09:27 Nm  11 10 27.553815 -10 55 01.68092
 2018-Oct-24 09:28 Nm  11 10 27.610348 -10 55 01.58303
 2018-Oct-24 09:29 Nm  11 10 27.666844 -10 55 01.48511
 2018-Oct-24 09:30 Nm  11 10 27.723303 -10 55 01.38714
 2018-Oct-24 09:31 Cm  11 10 27.779725 -10 55 01.28912
 2018-Oct-24 09:32 Cm  11 10 27.836110 -10 55 01.19105
 2018-Oct-24 09:33 Cm  11 10 27.892458 -10 55 01.09294
 2018-Oct-24 09:34 Cm  11 10 27.948770 -10 55 00.99478
 2018-Oct-24 09:35 Cm  11 10 28.005045 -10 55 00.89657
 2018-Oct-24 09:36 Cm  11 10 28.061283 -10 55 00.79832
 2018-Oct-24 09:37 Cm  11 10 28.117485 -10 55 00.70001
 2018-Oct-24 09:38 Cm  11 10 28.173651 -10 55 00.60166
 2018-Oct-24 09:39 Cm  11 10 28.229781 -10 55 00.50325
 2018-Oct-24 09:40 Cm  11 10 28.285874 -10 55 00.40480
 2018-Oct-24 09:41 Cm  11 10 28.341931 -10 55 00.30629
 2018-Oct-24 09:42 Cm  11 10 28.397952 -10 55 00.20773
 2018-Oct-24 09:43 Cm  11 10 28.453938 -10 55 00.10912
 2018-Oct-24 09:44 Cm  11 10 28.509887 -10 55 00.01046
 2018-Oct-24 09:45 Cm  11 10 28.565801 -10 54 59.91174
 2018-Oct-24 09:46 Cm  11 10 28.621680 -10 54 59.81298
